STARLINK-2001
1 47596U 21009BA  26106.53448743  .00037745  00000+0  48489-3 0  9997
2 47596  53.0450 198.6202 0006350 319.4244  40.6294 15.58738002286683
STARLINK-2021
1 47604U 21009BJ  26106.53162538  .00074423  00000+0  52354-3 0  9992
2 47604  53.0391 149.0580 0004908 344.7489  15.3380 15.73470274287389
TJS-6
1 47613U 21010A   26106.83236514  .00000050  00000+0  00000+0 0  9995
2 47613   0.4404  88.7348 0003122 313.9171 280.4762  1.00271579 19197
STARLINK-1609
1 47621U 21012B   26106.67645256  .00047112  00000+0  11975-2 0  9991
2 47621  53.1594 247.3631 0002146 329.7132  30.3749 15.39183796285929
STARLINK-1655
1 47623U 21012D   26106.80885603  .00071824  00000+0  52233-3 0  9990
2 47623  53.0381 137.9467 0011008  41.5842 318.6011 15.72640632287457
STARLINK-1669
1 47624U 21012E   26106.85325567  .00541520  15097-3  74369-3 0  9999
2 47624  53.0228 158.1745 0009055 349.9598  10.1251 16.05512742287181
STARLINK-1704
1 47625U 21012F   26106.74423705  .00045903  00000+0  82150-3 0  9996
2 47625  53.0505 241.1198 0005298 319.2471  40.8140 15.49538045285995
STARLINK-1972
1 47627U 21012H   26106.80995933  .00045712  00000+0  70556-3 0  9997
2 47627  53.0492 141.5795 0007247   8.1538 351.9588 15.53674128287376
STARLINK-1973
1 47628U 21012J   26106.61060140  .00000611  00000+0  31472-4 0  9994
2 47628  53.1597 248.7982 0001412  83.0987 277.0175 15.31699181285897
STARLINK-1983
1 47630U 21012L   26106.91668980 -.00009704  00000+0 -30133-3 0  9992
2 47630  53.1613 231.9485 0001124  59.8090 207.9027 15.31700891  5841
STARLINK-1992
1 47632U 21012N   26106.85631367  .00001094  00000+0  49083-4 0  9993
2 47632  53.1592 155.1288 0001248 101.0673 259.0468 15.30192498287207
STARLINK-2015
1 47638U 21012U   26106.54317395  .00021280  00000+0  72153-3 0  9999
2 47638  53.1589 156.5656 0001320  67.5514 292.5626 15.30513912287154
STARLINK-2019
1 47641U 21012X   26106.74522580  .00079296  00000+0  74556-3 0  9998
2 47641  53.0415 116.7620 0004523  39.6678 320.4667 15.66451597287721
STARLINK-2031
1 47648U 21012AE  26106.63048272 -.00000736  00000+0 -11933-4 0  9990
2 47648  53.1608 233.2389 0001360  91.5344 268.5813 15.31708813286118
STARLINK-2032
1 47649U 21012AF  26106.45913465  .00061780  00000+0  44605-3 0  9991
2 47649  53.0399 187.3956 0002709 257.0502 103.0214 15.72945512286737
STARLINK-2033
1 47650U 21012AG  26106.74652266  .00032751  00000+0  94227-3 0  9995
2 47650  53.1544 231.9352 0003925 325.4735  34.6013 15.35509486286121
STARLINK-2036
1 47652U 21012AJ  26106.64825345  .00055723  00000+0  10146-2 0  9997
2 47652  53.1597 243.9786 0005226 307.5222  52.5311 15.48964939285955
STARLINK-2039
1 47655U 21012AM  26106.68518549 -.00000057  00000+0  99202-5 0  9993
2 47655  53.1593 248.5067 0000798  39.8154 320.2906 15.31704598285900
STARLINK-2040
1 47656U 21012AN  26106.62582406  .00001881  00000+0  72346-4 0  9995
2 47656  53.1602 233.2502 0000956  83.5854 276.5257 15.31704689286102
STARLINK-2041
1 47657U 21012AP  26106.76832986  .00026357  00000+0  26491-3 0  9996
2 47657  53.1601 241.6611 0001643 350.7480   9.3505 15.65303515286001
STARLINK-2065
1 47672U 21012BE  26106.48180367  .00097911  00000+0  53600-3 0  9997
2 47672  53.1490 181.5140 0003709  36.3922 323.7352 15.79074427286810
STARLINK-2083
1 47676U 21012BJ  26106.86019432  .00061794  00000+0  55992-3 0  9993
2 47676  53.0459  95.2572 0002762  68.0315 292.0994 15.67476602288038
STARLINK-2095
1 47679U 21012BM  26106.80561779  .01259977  10051-2  13794-2 0  9992
2 47679  53.0104 153.9424 0010893   8.7741 351.3481 16.09212287287239
YAOGAN-31 03A
1 47691U 21014A   26106.84812031 -.00000081  00000+0  14607-4 0  9998
2 47691  63.4072 355.4861 0171919   0.4585 359.6569 13.45445400252522
YAOGAN-31 03B
1 47693U 21014C   26106.84807817 -.00000106  00000+0 -24175-4 0  9996
2 47693  63.4052 356.2961 0172096   0.7642 359.3615 13.45444860252423
YAOGAN-31 03C
1 47695U 21014E   26106.84788152 -.00000067  00000+0  35066-4 0  9994
2 47695  63.4061 355.3424 0172028   0.7449 359.3802 13.45445332252477
AMAZONIA 1
1 47699U 21015A   26106.49091277  .00000120  00000+0  51061-4 0  9997
2 47699  98.4336 180.0037 0003641  45.5625 314.5861 14.40789775269760
ARKTIKA-M 1
1 47719U 21016A   26104.19163249 -.00000023  00000+0  00000+0 0  9990
2 47719  63.2205  66.8463 7262707 269.6395  15.0340  2.00612377 37508
STARLINK-2068
1 47722U 21017A   26106.02638309  .00002377  00000+0  88336-4 0  9999
2 47722  53.1608  17.5395 0001284  87.2312 272.8837 15.31705339283798
STARLINK-2107
1 47723U 21017B   26106.84463976  .00003723  00000+0  13165-3 0  9999
2 47723  53.1590 309.4175 0001201  91.2082 268.9057 15.31710327284789
STARLINK-2131
1 47728U 21017G   26106.49856241  .00034541  00000+0  82695-3 0  9992
2 47728  53.0767  26.7756 0002020 149.6092 210.5029 15.41144739283692
STARLINK-2140
1 47730U 21017J   26106.91668980 -.00038331  00000+0 -12280-2 0  9998
2 47730  53.1608  39.3513 0001336 104.8893 350.3484 15.31745524  5915
STARLINK-2141
1 47731U 21017K   26106.49368221  .00057269  00000+0  83321-3 0  9991
2 47731  53.1590  22.5155 0004083 137.8087 222.3239 15.55219087283724
STARLINK-2143
1 47733U 21017M   26106.23758278  .00000579  00000+0  30429-4 0  9994
2 47733  53.1621  42.2345 0001167  76.7295 283.3837 15.31708049283460
STARLINK-2144
1 47734U 21017N   26106.17393944  .00001171  00000+0  49500-4 0  9992
2 47734  53.1616  29.7384 0001388  88.1582 271.9578 15.31692291283601
STARLINK-2147
1 47736U 21017Q   26106.86023520  .00019376  00000+0  51376-3 0  9999
2 47736  53.0761  25.4406 0001857 116.4901 243.6293 15.38358814283744
STARLINK-2150
1 47739U 21017T   26106.23392936  .00000932  00000+0  41797-4 0  9998
2 47739  53.1618  44.7640 0001202  80.0744 280.0393 15.31707041283433
STARLINK-2156
1 47742U 21017W   26106.17195679  .00000035  00000+0  12866-4 0  9999
2 47742  53.1653  20.0057 0000601  74.6495 285.4573 15.31706603283778
STARLINK-2159
1 47745U 21017Z   26106.07105291  .00065603  00000+0  11527-2 0  9995
2 47745  53.1595  26.1419 0003209 131.1347 228.9939 15.49916114283628
STARLINK-2160
1 47746U 21017AA  26106.21129522  .00036657  00000+0  88513-3 0  9992
2 47746  53.1612  29.2686 0001283 112.7805 247.3336 15.40860545283581
STARLINK-2161
1 47747U 21017AB  26106.03676248  .00001962  00000+0  74977-4 0  9996
2 47747  53.1622  20.3710 0001144  83.7224 276.3908 15.31701020283737
STARLINK-2162
1 47748U 21017AC  26106.44794063  .00056946  00000+0  77904-3 0  9992
2 47748  53.1595  11.6536 0003244 170.0006 190.1071 15.56892256283864
STARLINK-2163
1 47749U 21017AD  26106.80997833  .00045797  00000+0  78304-3 0  9990
2 47749  53.1583  13.6855 0002930 179.6748 180.4264 15.50843892283869
STARLINK-2164
1 47750U 21017AE  26106.91668980 -.00029159  00000+0 -93057-3 0  9990
2 47750  53.1604  15.9112 0001189 112.2420 345.7798 15.31733032  5853
STARLINK-2169
1 47752U 21017AG  26106.91668980  .00556644  00000+0  93996-2 0  9995
2 47752  53.1588  23.5695 0001213  91.8625 237.4260 15.49068079  5935
STARLINK-2170
1 47753U 21017AH  26106.77982670 -.00000202  00000+0  52533-5 0  9995
2 47753  53.1631  26.9266 0001352  93.5695 266.5462 15.31710396283725
STARLINK-2171
1 47754U 21017AJ  26106.36045722  .00107789  00000+0  53618-3 0  9999
2 47754  53.0424 340.7060 0003905 247.5922 112.4686 15.81131165284289
STARLINK-2178
1 47760U 21017AQ  26106.84814683  .00001751  00000+0  68159-4 0  9998
2 47760  53.1622  39.4092 0001432  91.2488 268.8678 15.31709409283539
STARLINK-2180
1 47762U 21017AS  26106.53498288  .00073594  00000+0  93556-3 0  9997
2 47762  53.1610  37.0674 0002907 145.1003 215.0201 15.58744729283537
STARLINK-2185
1 47767U 21017AX  26106.49514206  .00036454  00000+0  75664-3 0  9990
2 47767  53.1600  26.4555 0002439 142.9588 217.1588 15.45371720283707
STARLINK-2193
1 47770U 21017BA  26106.48829010  .00000456  00000+0  27519-4 0  9995
2 47770  53.1612  28.2626 0001393  90.6711 269.4449 15.30191893283653
STARLINK-2194
1 47771U 21017BB  26106.75651719 -.00000201  00000+0  52968-5 0  9991
2 47771  53.1617  26.9760 0001322  73.0861 287.0285 15.31699939283701
STARLINK-2195
1 47772U 21017BC  26106.91668980 -.00012089  00000+0 -37862-3 0  9990
2 47772  53.1608  39.6879 0001336  98.6107 253.6379 15.31683660  5737
STARLINK-2196
1 47773U 21017BD  26106.91668980 -.00020465  00000+0 -64887-3 0  9995
2 47773  53.1613  39.1116 0001634  93.4376 233.4056 15.31730651  5859
STARLINK-2209
1 47776U 21017BG  26106.04890423  .00046675  00000+0  84948-3 0  9990
2 47776  53.1589  25.6450 0003237 140.2438 219.8809 15.49062174283653
STARLINK-2211
1 47778U 21017BJ  26106.78763973  .00037171  00000+0  84471-3 0  9994
2 47778  53.1614  24.8220 0003937 133.4627 226.6707 15.42674246283724
STARLINK-2213
1 47780U 21017BL  26106.20655427 -.00000702  00000+0 -10853-4 0  9994
2 47780  53.1611  29.5129 0001499  80.9678 279.1493 15.31703768283643
STARLINK-2257
1 47787U 21018A   26106.60862074  .00001846  00000+0  74440-4 0  9994
2 47787  53.1616  69.2057 0001210  90.5920 269.5220 15.30194664282495
STARLINK-2314
1 47788U 21018B   26106.84407411  .00036230  00000+0  10930-2 0  9998
2 47788  53.1591  42.0519 0002860 117.7548 242.3745 15.33968381282916
STARLINK-2315
1 47789U 21018C   26106.57937044  .00000510  00000+0  53110-4 0  9990
2 47789  53.0565  61.5261 0001437  78.9608 281.1542 15.06392354282592
STARLINK-2319
1 47790U 21018D   26106.83881973  .00001623  00000+0  64055-4 0  9996
2 47790  53.1612  39.4319 0001365  94.9741 265.1416 15.31707760282942
STARLINK-2322
1 47791U 21018E   26106.61265666  .00000928  00000+0  41685-4 0  9999
2 47791  53.1613  66.7188 0001607  95.1010 265.0175 15.31702809282548
STARLINK-2334
1 47792U 21018F   26106.58672888  .00000146  00000+0  28685-4 0  9991
2 47792  53.0555  61.4927 0001559  88.4825 271.6342 15.06396494282596
STARLINK-2338
1 47793U 21018G   26106.86670721  .00020700  00000+0  13985-2 0  9990
2 47793  53.0559  60.2343 0001112  71.3225 288.7885 15.06558928282627
STARLINK-2373
1 47796U 21018K   26106.87406449  .00025845  00000+0  17388-2 0  9994
2 47796  53.0562  60.2013 0001138  61.1484 298.9619 15.06587478282631
